{
  "type": "FeatureCollection",
  "features": [
    {
      "type": "Feature",
      "properties": {
        "norad_id": 66990,
        "name": "TJS-22",
        "group": "last-30-days",
        "lat": -1.4286628151834972,
        "lon": 152.24982545518196,
        "alt_km": 35792.69299585769,
        "timestamp": "2025-12-22T23:36:19.413072+00:00",
        "meta_object_name": "TJS-22",
        "meta_object_id": "2025-290A",
        "meta_epoch": "2025-12-22T08:32:30.498720",
        "meta_mean_motion": 1.00271078,
        "meta_eccentricity": 0.0003432,
        "meta_inclination": 1.9644,
        "meta_ra_of_asc_node": 285.025,
        "meta_arg_of_pericenter": 342.6527,
        "meta_mean_anomaly": 18.064,
        "meta_ephemeris_type": 0,
        "meta_classification_type": "U",
        "meta_norad_cat_id": 66990,
        "meta_element_set_no": 999,
        "meta_rev_at_epoch": 25,
        "meta_bstar": 0,
        "meta_mean_motion_dot": 1.7e-07,
        "meta_mean_motion_ddot": 0,
        "tle_line1": "1 66990U 25290A   25356.35590855  .00000017  00000+0  00000+0 0  9995",
        "tle_line2": "2 66990   1.9644 285.0250 0003432 342.6527  18.0640  1.00271078   251"
      },
      "geometry": {
        "type": "Point",
        "coordinates": [
          152.24982545518196,
          -1.4286628151834972
        ]
      }
    },
    {
      "type": "Feature",
      "properties": {
        "norad_id": 66991,
        "name": "CZ-3B R/B",
        "group": "last-30-days",
        "lat": 17.356740392455873,
        "lon": -27.21322724471284,
        "alt_km": 23005.634729309328,
        "timestamp": "2025-12-22T23:36:19.413100+00:00",
        "meta_object_name": "CZ-3B R/B",
        "meta_object_id": "2025-290B",
        "meta_epoch": "2025-12-15T17:23:33.043200",
        "meta_mean_motion": 2.38388611,
        "meta_eccentricity": 0.7240884,
        "meta_inclination": 28.4636,
        "meta_ra_of_asc_node": 300.4666,
        "meta_arg_of_pericenter": 182.7002,
        "meta_mean_anomaly": 168.625,
        "meta_ephemeris_type": 0,
        "meta_classification_type": "U",
        "meta_norad_cat_id": 66991,
        "meta_element_set_no": 999,
        "meta_rev_at_epoch": 16,
        "meta_bstar": 0.00075879,
        "meta_mean_motion_dot": 0.00057911,
        "meta_mean_motion_ddot": -2.0514e-07,
        "tle_line1": "1 66991U 25290B   25349.72468800  .00057911 -20514-6  75879-3 0  9998",
        "tle_line2": "2 66991  28.4636 300.4666 7240884 182.7002 168.6250  2.38388611   165"
      },
      "geometry": {
        "type": "Point",
        "coordinates": [
          -27.21322724471284,
          17.356740392455873
        ]
      }
    },
    {
      "type": "Feature",
      "properties": {
        "norad_id": 66993,
        "name": "2025-292A",
        "group": "last-30-days",
        "lat": 5.238446449097685,
        "lon": 68.72896499707069,
        "alt_km": 561.5944901961748,
        "timestamp": "2025-12-22T23:36:19.413119+00:00",
        "meta_object_name": "2025-292A",
        "meta_object_id": "2025-292A",
        "meta_epoch": "2025-12-22T14:00:18.133344",
        "meta_mean_motion": 15.04562681,
        "meta_eccentricity": 0.00142665,
        "meta_inclination": 97.651,
        "meta_ra_of_asc_node": 69.0391,
        "meta_arg_of_pericenter": 236.3539,
        "meta_mean_anomaly": 123.6327,
        "meta_ephemeris_type": 0,
        "meta_classification_type": "U",
        "meta_norad_cat_id": 66993,
        "meta_element_set_no": 999,
        "meta_rev_at_epoch": 187,
        "meta_bstar": 0.00027234021,
        "meta_mean_motion_dot": 3.765e-05,
        "meta_mean_motion_ddot": 0,
        "tle_line1": "1 66993U 25292A   25356.58354321  .00003765  00000+0  27234-3 0  9996",
        "tle_line2": "2 66993  97.6510  69.0391 0014266 236.3539 123.6327 15.04562681  1879"
      },
      "geometry": {
        "type": "Point",
        "coordinates": [
          68.72896499707069,
          5.238446449097685
        ]
      }
    },
    {
      "type": "Feature",
      "properties": {
        "norad_id": 66994,
        "name": "2025-292B",
        "group": "last-30-days",
        "lat": 7.252934073512042,
        "lon": 68.45687874655523,
        "alt_km": 561.294505944793,
        "timestamp": "2025-12-22T23:36:19.413140+00:00",
        "meta_object_name": "2025-292B",
        "meta_object_id": "2025-292B",
        "meta_epoch": "2025-12-22T13:59:46.696704",
        "meta_mean_motion": 15.04608143,
        "meta_eccentricity": 0.00140435,
        "meta_inclination": 97.6519,
        "meta_ra_of_asc_node": 69.0408,
        "meta_arg_of_pericenter": 236.6102,
        "meta_mean_anomaly": 123.3781,
        "meta_ephemeris_type": 0,
        "meta_classification_type": "U",
        "meta_norad_cat_id": 66994,
        "meta_element_set_no": 999,
        "meta_rev_at_epoch": 187,
        "meta_bstar": 0.00032877641,
        "meta_mean_motion_dot": 4.564e-05,
        "meta_mean_motion_ddot": 0,
        "tle_line1": "1 66994U 25292B   25356.58317936  .00004564  00000+0  32878-3 0  9996",
        "tle_line2": "2 66994  97.6519  69.0408 0014043 236.6102 123.3781 15.04608143  1875"
      },
      "geometry": {
        "type": "Point",
        "coordinates": [
          68.45687874655523,
          7.252934073512042
        ]
      }
    },
    {
      "type": "Feature",
      "properties": {
        "norad_id": 66995,
        "name": "2025-292C",
        "group": "last-30-days",
        "lat": 7.9871306468099705,
        "lon": 68.35562410336904,
        "alt_km": 561.2844923686234,
        "timestamp": "2025-12-22T23:36:19.413151+00:00",
        "meta_object_name": "2025-292C",
        "meta_object_id": "2025-292C",
        "meta_epoch": "2025-12-22T13:59:35.511360",
        "meta_mean_motion": 15.04636662,
        "meta_eccentricity": 0.00143441,
        "meta_inclination": 97.6509,
        "meta_ra_of_asc_node": 69.0398,
        "meta_arg_of_pericenter": 237.0019,
        "meta_mean_anomaly": 122.9829,
        "meta_ephemeris_type": 0,
        "meta_classification_type": "U",
        "meta_norad_cat_id": 66995,
        "meta_element_set_no": 999,
        "meta_rev_at_epoch": 187,
        "meta_bstar": 0.0003685053,
        "meta_mean_motion_dot": 5.128e-05,
        "meta_mean_motion_ddot": 0,
        "tle_line1": "1 66995U 25292C   25356.58304990  .00005128  00000+0  36851-3 0  9995",
        "tle_line2": "2 66995  97.6509  69.0398 0014344 237.0019 122.9829 15.04636662  1874"
      },
      "geometry": {
        "type": "Point",
        "coordinates": [
          68.35562410336904,
          7.9871306468099705
        ]
      }
    },
    {
      "type": "Feature",
      "properties": {
        "norad_id": 66996,
        "name": "2025-292D",
        "group": "last-30-days",
        "lat": 9.807311673900672,
        "lon": 68.10477642062972,
        "alt_km": 560.4756402659805,
        "timestamp": "2025-12-22T23:36:19.413161+00:00",
        "meta_object_name": "2025-292D",
        "meta_object_id": "2025-292D",
        "meta_epoch": "2025-12-22T13:59:06.645120",
        "meta_mean_motion": 15.0465737,
        "meta_eccentricity": 0.00134825,
        "meta_inclination": 97.6504,
        "meta_ra_of_asc_node": 69.0393,
        "meta_arg_of_pericenter": 239.5106,
        "meta_mean_anomaly": 120.4789,
        "meta_ephemeris_type": 0,
        "meta_classification_type": "U",
        "meta_norad_cat_id": 66996,
        "meta_element_set_no": 999,
        "meta_rev_at_epoch": 187,
        "meta_bstar": 0.00023434229,
        "meta_mean_motion_dot": 3.239e-05,
        "meta_mean_motion_ddot": 0,
        "tle_line1": "1 66996U 25292D   25356.58271580  .00003239  00000+0  23434-3 0  9998",
        "tle_line2": "2 66996  97.6504  69.0393 0013482 239.5106 120.4789 15.04657370  1878"
      },
      "geometry": {
        "type": "Point",
        "coordinates": [
          68.10477642062972,
          9.807311673900672
        ]
      }
    },
    {
      "type": "Feature",
      "properties": {
        "norad_id": 66997,
        "name": "2025-292E",
        "group": "last-30-days",
        "lat": 13.566273234345298,
        "lon": 67.58170982425321,
        "alt_km": 560.1596168304295,
        "timestamp": "2025-12-22T23:36:19.413171+00:00",
        "meta_object_name": "2025-292E",
        "meta_object_id": "2025-292E",
        "meta_epoch": "2025-12-22T13:58:08.047776",
        "meta_mean_motion": 15.04745551,
        "meta_eccentricity": 0.00138806,
        "meta_inclination": 97.6524,
        "meta_ra_of_asc_node": 69.0432,
        "meta_arg_of_pericenter": 240.5666,
        "meta_mean_anomaly": 119.4175,
        "meta_ephemeris_type": 0,
        "meta_classification_type": "U",
        "meta_norad_cat_id": 66997,
        "meta_element_set_no": 999,
        "meta_rev_at_epoch": 186,
        "meta_bstar": 0.00027234093,
        "meta_mean_motion_dot": 3.784e-05,
        "meta_mean_motion_ddot": 0,
        "tle_line1": "1 66997U 25292E   25356.58203759  .00003784  00000+0  27234-3 0  9999",
        "tle_line2": "2 66997  97.6524  69.0432 0013880 240.5666 119.4175 15.04745551  1865"
      },
      "geometry": {
        "type": "Point",
        "coordinates": [
          67.58170982425321,
          13.566273234345298
        ]
      }
    }
  ]
}